ONEWEB-0206             
1 48227U 21031T   26157.07372606  .00000080  00000+0  18066-3 0  9993
2 48227  87.8962 291.9133 0001817  94.2958 265.8379 13.14502738246766
ONEWEB-0182             
1 48228U 21031U   26157.60178950  .00000266  00000+0  68187-3 0  9994
2 48228  87.8959 291.8159 0002088  97.4509 262.6858 13.14502065247040
ONEWEB-0186             
1 48229U 21031V   26157.61288630  .00000049  00000+0  98926-4 0  9997
2 48229  87.8964 291.8034 0001910 102.7954 257.3389 13.14501827246994
ONEWEB-0181             
1 48230U 21031W   26157.66681289  .00000268  00000+0  68875-3 0  9993
2 48230  87.8946 291.8240 0001864 105.9243 254.2092 13.14503157246859
ONEWEB-0188             
1 48231U 21031X   26157.40039729 -.00000212  00000+0 -60684-3 0  9993
2 48231  87.8946 291.8753 0001897 101.4489 258.6854 13.14503349246721
ONEWEB-0220             
1 48232U 21031Y   26157.66837853  .00000278  00000+0  71647-3 0  9997
2 48232  87.8964 291.7943 0002089 107.0392 253.0966 13.14501670247023
ONEWEB-0165             
1 48233U 21031Z   26157.08798777 -.00002901  00000+0 -78591-2 0  9996
2 48233  87.8962 291.9240 0001864 109.6417 250.4914 13.14517244246904
ONEWEB-0199             
1 48234U 21031AA  26157.60496340  .00000161  00000+0  40046-3 0  9995
2 48234  87.8966 291.8055 0001885  94.2651 265.8694 13.14502550246879
ONEWEB-0203             
1 48235U 21031AB  26157.13874181  .00000236  00000+0  60307-3 0  9992
2 48235  87.8964 291.9021 0001718  99.5088 260.6236 13.14501861246823
ONEWEB-0197             
1 48236U 21031AC  26157.64605757  .00000109  00000+0  26051-3 0  9997
2 48236  87.8949 291.7882 0002200  99.8496 260.2882 13.14503282246803
ONEWEB-0194             
1 48237U 21031AD  26157.39721944 -.00000253  00000+0 -71699-3 0  9997
2 48237  87.8948 291.8580 0001711  93.5633 266.5692 13.14502316246949
ONEWEB-0193             
1 48238U 21031AE  26157.64143029 -.00000060  00000+0 -19520-3 0  9999
2 48238  87.8955 291.8013 0001636  87.2795 272.8522 13.14502174246926
ONEWEB-0191             
1 48239U 21031AF  26157.65253753  .00000186  00000+0  46842-3 0  9991
2 48239  87.8962 291.7970 0002077  97.3616 262.7749 13.14502458246788
ONEWEB-0195             
1 48240U 21031AG  26157.40116956 -.00000181  00000+0 -52284-3 0  9993
2 48240  87.8960 291.8472 0001805 112.8335 247.2985 13.14501365246736
ONEWEB-0201             
1 48241U 21031AH  26157.61778220 -.00000146  00000+0 -42719-3 0  9998
2 48241  87.8953 291.8210 0002123 101.1987 258.9381 13.14503929246992
ONEWEB-0207             
1 48242U 21031AJ  26157.59782547  .00000299  00000+0  77153-3 0  9990
2 48242  87.8961 291.8096 0002141 101.7557 258.3813 13.14502275246901
